{ "C21": {"norda": "43208", "Classification": "U", "internationalid": "18018B  ", "time": "23359.50056409", "l1": "-.00000066", "l2": " 00000+0", "bstar": " 00000+0", "orbittype": "0", "tlecounts": " 999", "Inclination": " 55.8858", "Right_Ascension_of_the_Ascending_Node": " 93.1820", "Eccentricity": "0006808", "Argument_of_Perigee": "300.9851", "Mean_Anomaly": " 58.9398", "Mean_Motion": " 1.86231381", "alreadyflys": " 3989", "gap": 1}, "C29": {"norda": "43245", "Classification": "U", "internationalid": "18029A  ", "time": "23359.18592346", "l1": "-.00000106", "l2": " 00000+0", "bstar": " 00000+0", "orbittype": "0", "tlecounts": " 999", "Inclination": " 54.9429", "Right_Ascension_of_the_Ascending_Node": "331.3666", "Eccentricity": "0002080", "Argument_of_Perigee": "283.5209", "Mean_Anomaly": " 76.4434", "Mean_Motion": " 1.86232553", "alreadyflys": " 3904", "gap": 1}, "C30": {"norda": "43246", "Classification": "U", "internationalid": "18029B  ", "time": "23358.57884988", "l1": "-.00000105", "l2": " 00000+0", "bstar": " 00000+0", "orbittype": "0", "tlecounts": " 999", "Inclination": " 54.9408", "Right_Ascension_of_the_Ascending_Node": "331.4163", "Eccentricity": "0004493", "Argument_of_Perigee": "344.4675", "Mean_Anomaly": " 15.5073", "Mean_Motion": " 1.86232704", "alreadyflys": " 3901", "gap": 1}, "C16": {"norda": "43539", "Classification": "U", "internationalid": "18057A  ", "time": "23359.92925694", "l1": "-.00000055", "l2": " 00000+0", "bstar": " 00000+0", "orbittype": "0", "tlecounts": " 999", "Inclination": " 55.1261", "Right_Ascension_of_the_Ascending_Node": "170.8697", "Eccentricity": "0064432", "Argument_of_Perigee": "228.9664", "Mean_Anomaly": "139.1546", "Mean_Motion": " 1.00249038", "alreadyflys": " 2008", "gap": 1}, "C23": {"norda": "43581", "Classification": "U", "internationalid": "18062A  ", "time": "23359.87350963", "l1": " .00000087", "l2": " 00000+0", "bstar": " 00000+0", "orbittype": "0", "tlecounts": " 999", "Inclination": " 54.1558", "Right_Ascension_of_the_Ascending_Node": "213.0746", "Eccentricity": "0002000", "Argument_of_Perigee": "342.0736", "Mean_Anomaly": " 18.0048", "Mean_Motion": " 1.86228734", "alreadyflys": " 3679", "gap": 1}, "C24": {"norda": "43582", "Classification": "U", "internationalid": "18062B  ", "time": "23359.20321000", "l1": " .00000093", "l2": " 00000+0", "bstar": " 00000+0", "orbittype": "0", "tlecounts": " 999", "Inclination": " 54.1554", "Right_Ascension_of_the_Ascending_Node": "213.0870", "Eccentricity": "0007164", "Argument_of_Perigee": " 36.1200", "Mean_Anomaly": "324.0150", "Mean_Motion": " 1.86229746", "alreadyflys": " 3678", "gap": 1}, "C26": {"norda": "43602", "Classification": "U", "internationalid": "18067A  ", "time": "23359.67542453", "l1": " .00000091", "l2": " 00000+0", "bstar": " 00000+0", "orbittype": "0", "tlecounts": " 999", "Inclination": " 54.2439", "Right_Ascension_of_the_Ascending_Node": "211.7364", "Eccentricity": "0008252", "Argument_of_Perigee": " 29.2883", "Mean_Anomaly": "330.8424", "Mean_Motion": " 1.86231525", "alreadyflys": " 3627", "gap": 1}, "C25": {"norda": "43603", "Classification": "U", "internationalid": "18067B  ", "time": "23359.27231927", "l1": " .00000094", "l2": " 00000+0", "bstar": " 00000+0", "orbittype": "0", "tlecounts": " 999", "Inclination": " 54.2412", "Right_Ascension_of_the_Ascending_Node": "211.7158", "Eccentricity": "0004963", "Argument_of_Perigee": " 25.8784", "Mean_Anomaly": "334.2315", "Mean_Motion": " 1.86231499", "alreadyflys": " 3629", "gap": 1}, "C32": {"norda": "43622", "Classification": "U", "internationalid": "18072A  ", "time": "23359.23167079", "l1": "-.00000068", "l2": " 00000+0", "bstar": " 00000+0", "orbittype": "0", "tlecounts": " 999", "Inclination": " 55.8562", "Right_Ascension_of_the_Ascending_Node": " 92.7236", "Eccentricity": "0006140", "Argument_of_Perigee": "282.2511", "Mean_Anomaly": " 77.6717", "Mean_Motion": " 1.86231108", "alreadyflys": " 3580", "gap": 1}, "C33": {"norda": "43623", "Classification": "U", "internationalid": "18072B  ", "time": "23359.09712354", "l1": "-.00000068", "l2": " 00000+0", "bstar": " 00000+0", "orbittype": "0", "tlecounts": " 999", "Inclination": " 55.8580", "Right_Ascension_of_the_Ascending_Node": " 92.7209", "Eccentricity": "0003336", "Argument_of_Perigee": "307.4652", "Mean_Anomaly": " 52.4954", "Mean_Motion": " 1.86231110", "alreadyflys": " 3579", "gap": 1}, "C35": {"norda": "43647", "Classification": "U", "internationalid": "18078A  ", "time": "23359.26069004", "l1": "-.00000106", "l2": " 00000+0", "bstar": " 00000+0", "orbittype": "0", "tlecounts": " 999", "Inclination": " 54.8392", "Right_Ascension_of_the_Ascending_Node": "331.4776", "Eccentricity": "0007368", "Argument_of_Perigee": "  0.6316", "Mean_Anomaly": "359.3565", "Mean_Motion": " 1.86232231", "alreadyflys": " 3530", "gap": 1}, "C34": {"norda": "43648", "Classification": "U", "internationalid": "18078B  ", "time": "23359.38978441", "l1": "-.00000106", "l2": " 00000+0", "bstar": " 00000+0", "orbittype": "0", "tlecounts": " 999", "Inclination": " 54.8351", "Right_Ascension_of_the_Ascending_Node": "331.4767", "Eccentricity": "0004268", "Argument_of_Perigee": "  0.2451", "Mean_Anomaly": "359.7422", "Mean_Motion": " 1.86232144", "alreadyflys": " 3532", "gap": 1}, "C59": {"norda": "43683", "Classification": "U", "internationalid": "18085A  ", "time": "23359.84708249", "l1": "-.00000269", "l2": " 00000+0", "bstar": " 00000+0", "orbittype": "0", "tlecounts": " 999", "Inclination": "  1.7736", "Right_Ascension_of_the_Ascending_Node": "117.5200", "Eccentricity": "0001144", "Argument_of_Perigee": " 21.7398", "Mean_Anomaly": " 39.8630", "Mean_Motion": " 1.00271871", "alreadyflys": " 1899", "gap": 1}, "C36": {"norda": "43706", "Classification": "U", "internationalid": "18093A  ", "time": "23359.00098900", "l1": " .00000095", "l2": " 00000+0", "bstar": " 00000+0", "orbittype": "0", "tlecounts": " 999", "Inclination": " 54.2385", "Right_Ascension_of_the_Ascending_Node": "213.0299", "Eccentricity": "0006592", "Argument_of_Perigee": "295.0601", "Mean_Anomaly": " 64.9583", "Mean_Motion": " 1.86228284", "alreadyflys": " 3468", "gap": 1}, "C37": {"norda": "43707", "Classification": "U", "internationalid": "18093B  ", "time": "23358.33076013", "l1": " .00000098", "l2": " 00000+0", "bstar": " 00000+0", "orbittype": "0", "tlecounts": " 999", "Inclination": " 54.2393", "Right_Ascension_of_the_Ascending_Node": "213.0444", "Eccentricity": "0006389", "Argument_of_Perigee": "334.1843", "Mean_Anomaly": " 25.8707", "Mean_Motion": " 1.86229782", "alreadyflys": " 3466", "gap": 1}, "C38": {"norda": "44204", "Classification": "U", "internationalid": "19023A  ", "time": "23359.85561811", "l1": "-.00000224", "l2": " 00000+0", "bstar": " 00000+0", "orbittype": "0", "tlecounts": " 999", "Inclination": " 57.3835", "Right_Ascension_of_the_Ascending_Node": " 47.0551", "Eccentricity": "0023834", "Argument_of_Perigee": "204.1671", "Mean_Anomaly": "266.3544", "Mean_Motion": " 1.00248909", "alreadyflys": " 1727", "gap": 1}, "C01": {"norda": "44231", "Classification": "U", "internationalid": "19027A  ", "time": "23359.84933715", "l1": "-.00000239", "l2": " 00000+0", "bstar": " 00000+0", "orbittype": "0", "tlecounts": " 999", "Inclination": "  1.5196", "Right_Ascension_of_the_Ascending_Node": " 72.2370", "Eccentricity": "0004872", "Argument_of_Perigee": "172.4667", "Mean_Anomaly": "299.6234", "Mean_Motion": " 1.00275480", "alreadyflys": " 1701", "gap": 1}, "C39": {"norda": "44337", "Classification": "U", "internationalid": "19035A  ", "time": "23359.42825927", "l1": "-.00000065", "l2": " 00000+0", "bstar": " 00000+0", "orbittype": "0", "tlecounts": " 999", "Inclination": " 55.1636", "Right_Ascension_of_the_Ascending_Node": "166.8029", "Eccentricity": "0030958", "Argument_of_Perigee": "199.7445", "Mean_Anomaly": "358.3727", "Mean_Motion": " 1.00295525", "alreadyflys": " 1659", "gap": 1}, "C46": {"norda": "44542", "Classification": "U", "internationalid": "19061A  ", "time": "23360.01241285", "l1": " .00000087", "l2": " 00000+0", "bstar": " 00000+0", "orbittype": "0", "tlecounts": " 999", "Inclination": " 54.4657", "Right_Ascension_of_the_Ascending_Node": "213.2475", "Eccentricity": "0008821", "Argument_of_Perigee": " 10.1289", "Mean_Anomaly": "349.9744", "Mean_Motion": " 1.86231443", "alreadyflys": " 2895", "gap": 1}, "C45": {"norda": "44543", "Classification": "U", "internationalid": "19061B  ", "time": "23359.67184569", "l1": " .00000090", "l2": " 00000+0", "bstar": " 00000+0", "orbittype": "0", "tlecounts": " 999", "Inclination": " 54.4641", "Right_Ascension_of_the_Ascending_Node": "213.2281", "Eccentricity": "0005557", "Argument_of_Perigee": "  8.2782", "Mean_Anomaly": " 35.5120", "Mean_Motion": " 1.86231798", "alreadyflys": " 2895", "gap": 1}, "C40": {"norda": "44709", "Classification": "U", "internationalid": "19073A  ", "time": "23359.22600837", "l1": "-.00000213", "l2": " 00000+0", "bstar": " 00000+0", "orbittype": "0", "tlecounts": " 999", "Inclination": " 56.3485", "Right_Ascension_of_the_Ascending_Node": "290.5762", "Eccentricity": "0033384", "Argument_of_Perigee": "189.2901", "Mean_Anomaly": "170.6284", "Mean_Motion": " 1.00247885", "alreadyflys": " 1538", "gap": 1}, "C44": {"norda": "44793", "Classification": "U", "internationalid": "19078A  ", "time": "23359.32083287", "l1": "-.00000106", "l2": " 00000+0", "bstar": " 00000+0", "orbittype": "0", "tlecounts": " 999", "Inclination": " 54.6875", "Right_Ascension_of_the_Ascending_Node": "331.4289", "Eccentricity": "0006197", "Argument_of_Perigee": "  5.4037", "Mean_Anomaly": "354.5903", "Mean_Motion": " 1.86232032", "alreadyflys": " 2779", "gap": 1}}